STARLINK-36040          
1 66614U 25270AC  25362.97370273  .00103930  00000+0  24585-2 0  9996
2 66614  43.0002  98.7575 0001407 275.8297  84.2400 15.40736613  6692
STARLINK-35988          
1 66615U 25270AD  25362.66299513  .00054813  00000+0  13087-2 0  9990
2 66615  43.0045 100.7283 0003076 271.2342  88.8162 15.40727022  6649
STARLINK-35391          
1 66616U 25270AE  25362.96922576  .00100806  00000+0  23866-2 0  9996
2 66616  42.9969  98.7237 0001310 292.1783  67.8935 15.40726498  6964
STARLINK-35940          
1 66617U 25271A   25363.13350384  .00053190  00000+0  13286-2 0  9998
2 66617  53.1585 109.8376 0001541  86.1542 273.9639 15.39662892  6732
STARLINK-35970          
1 66618U 25271B   25363.00001157  .00017905  00000+0  45712-3 0  9990
2 66618  53.1587 109.7920 0001340  86.9265 229.5148 15.39581985  5976
STARLINK-35951          
1 66619U 25271C   25362.70222313  .00054008  00000+0  13502-2 0  9992
2 66619  53.1600 111.4076 0000944 112.4107 247.6998 15.39629422  6675
STARLINK-35936          
1 66620U 25271D   25363.29573947  .00108770  00000+0  26839-2 0  9994
2 66620  53.1605 108.7170 0000797 109.5150 250.5941 15.39695856  6762
STARLINK-35847          
1 66621U 25271E   25363.33335648  .00060903  00000+0  15236-2 0  9998
2 66621  53.1587 108.1691 0000998  98.9873 291.8712 15.39555981  6038
STARLINK-35950          
1 66622U 25271F   25362.79035627  .00058179  00000+0  14526-2 0  9995
2 66622  53.1597 111.2494 0001222  79.3215 280.7928 15.39636590  6683
STARLINK-35920          
1 66623U 25271G   25362.60490268  .00054378  00000+0  13587-2 0  9995
2 66623  53.1597 112.2248 0001087  71.1949 288.9174 15.39644459  6658
STARLINK-35927          
1 66624U 25271H   25362.63266681  .00062960  00000+0  15706-2 0  9990
2 66624  53.1604 111.6854 0000923  84.1246 275.9864 15.39627582  6667
STARLINK-35929          
1 66625U 25271J   25362.52141031  .00056464  00000+0  14111-2 0  9991
2 66625  53.1605 112.4126 0001262  45.0573 315.0534 15.39620189  6640
