CCSDS_OMM_VERS = 2.0
CREATION_DATE  = 
ORIGINATOR     = 

OBJECT_NAME    = STARLINK-36040
OBJECT_ID      = 2025-270AC
CENTER_NAME    = EARTH
REF_FRAME      = TEME
TIME_SYSTEM    = UTC
MEAN_ELEMENT_THEORY = SGP/SGP4

EPOCH          = 2025-12-28T23:22:07.915872
MEAN_MOTION    = 15.40736613
ECCENTRICITY   = .00014074
INCLINATION    = 43.0002
RA_OF_ASC_NODE = 98.7575
ARG_OF_PERICENTER = 275.8297
MEAN_ANOMALY   = 84.2400

EPHEMERIS_TYPE = 0
CLASSIFICATION_TYPE = U
NORAD_CAT_ID   = 66614
ELEMENT_SET_NO = 999
REV_AT_EPOCH   = 669
BSTAR          = .24585078E-2
MEAN_MOTION_DOT = .10393E-2
MEAN_MOTION_DDOT = 0

CCSDS_OMM_VERS = 2.0
CREATION_DATE  = 
ORIGINATOR     = 

OBJECT_NAME    = STARLINK-35988
OBJECT_ID      = 2025-270AD
CENTER_NAME    = EARTH
REF_FRAME      = TEME
TIME_SYSTEM    = UTC
MEAN_ELEMENT_THEORY = SGP/SGP4

EPOCH          = 2025-12-28T15:54:42.779232
MEAN_MOTION    = 15.40727022
ECCENTRICITY   = .00030763
INCLINATION    = 43.0045
RA_OF_ASC_NODE = 100.7283
ARG_OF_PERICENTER = 271.2342
MEAN_ANOMALY   = 88.8162

EPHEMERIS_TYPE = 0
CLASSIFICATION_TYPE = U
NORAD_CAT_ID   = 66615
ELEMENT_SET_NO = 999
REV_AT_EPOCH   = 664
BSTAR          = .13087313E-2
MEAN_MOTION_DOT = .54813E-3
MEAN_MOTION_DDOT = 0

CCSDS_OMM_VERS = 2.0
CREATION_DATE  = 
ORIGINATOR     = 

OBJECT_NAME    = STARLINK-35391
OBJECT_ID      = 2025-270AE
CENTER_NAME    = EARTH
REF_FRAME      = TEME
TIME_SYSTEM    = UTC
MEAN_ELEMENT_THEORY = SGP/SGP4

EPOCH          = 2025-12-28T23:15:41.105664
MEAN_MOTION    = 15.40726498
ECCENTRICITY   = .000131
INCLINATION    = 42.9969
RA_OF_ASC_NODE = 98.7237
ARG_OF_PERICENTER = 292.1783
MEAN_ANOMALY   = 67.8935

EPHEMERIS_TYPE = 0
CLASSIFICATION_TYPE = U
NORAD_CAT_ID   = 66616
ELEMENT_SET_NO = 999
REV_AT_EPOCH   = 696
BSTAR          = .23866009E-2
MEAN_MOTION_DOT = .100806E-2
MEAN_MOTION_DDOT = 0

CCSDS_OMM_VERS = 2.0
CREATION_DATE  = 
ORIGINATOR     = 

OBJECT_NAME    = STARLINK-35940
OBJECT_ID      = 2025-271A
CENTER_NAME    = EARTH
REF_FRAME      = TEME
TIME_SYSTEM    = UTC
MEAN_ELEMENT_THEORY = SGP/SGP4

EPOCH          = 2025-12-29T03:12:14.731776
MEAN_MOTION    = 15.39662892
ECCENTRICITY   = .00015419
INCLINATION    = 53.1585
RA_OF_ASC_NODE = 109.8376
ARG_OF_PERICENTER = 86.1542
MEAN_ANOMALY   = 273.9639

EPHEMERIS_TYPE = 0
CLASSIFICATION_TYPE = U
NORAD_CAT_ID   = 66617
ELEMENT_SET_NO = 999
REV_AT_EPOCH   = 673
BSTAR          = .13285952E-2
MEAN_MOTION_DOT = .5319E-3
MEAN_MOTION_DDOT = 0

CCSDS_OMM_VERS = 2.0
CREATION_DATE  = 
ORIGINATOR     = 

OBJECT_NAME    = STARLINK-35970
OBJECT_ID      = 2025-271B
CENTER_NAME    = EARTH
REF_FRAME      = TEME
TIME_SYSTEM    = UTC
MEAN_ELEMENT_THEORY = SGP/SGP4

EPOCH          = 2025-12-29T00:00:00.999648
MEAN_MOTION    = 15.39581985
ECCENTRICITY   = .00013405
INCLINATION    = 53.1587
RA_OF_ASC_NODE = 109.7920
ARG_OF_PERICENTER = 86.9265
MEAN_ANOMALY   = 229.5148

EPHEMERIS_TYPE = 0
CLASSIFICATION_TYPE = U
NORAD_CAT_ID   = 66618
ELEMENT_SET_NO = 999
REV_AT_EPOCH   = 597
BSTAR          = .45711893E-3
MEAN_MOTION_DOT = .17905E-3
MEAN_MOTION_DDOT = 0

CCSDS_OMM_VERS = 2.0
CREATION_DATE  = 
ORIGINATOR     = 

OBJECT_NAME    = STARLINK-35951
OBJECT_ID      = 2025-271C
CENTER_NAME    = EARTH
REF_FRAME      = TEME
TIME_SYSTEM    = UTC
MEAN_ELEMENT_THEORY = SGP/SGP4

EPOCH          = 2025-12-28T16:51:12.078432
MEAN_MOTION    = 15.39629422
ECCENTRICITY   = .00009443
INCLINATION    = 53.1600
RA_OF_ASC_NODE = 111.4076
ARG_OF_PERICENTER = 112.4107
MEAN_ANOMALY   = 247.6998

EPHEMERIS_TYPE = 0
CLASSIFICATION_TYPE = U
NORAD_CAT_ID   = 66619
ELEMENT_SET_NO = 999
REV_AT_EPOCH   = 667
BSTAR          = .13502171E-2
MEAN_MOTION_DOT = .54008E-3
MEAN_MOTION_DDOT = 0

CCSDS_OMM_VERS = 2.0
CREATION_DATE  = 
ORIGINATOR     = 

OBJECT_NAME    = STARLINK-35936
OBJECT_ID      = 2025-271D
CENTER_NAME    = EARTH
REF_FRAME      = TEME
TIME_SYSTEM    = UTC
MEAN_ELEMENT_THEORY = SGP/SGP4

EPOCH          = 2025-12-29T07:05:51.890208
MEAN_MOTION    = 15.39695856
ECCENTRICITY   = .00007975
INCLINATION    = 53.1605
RA_OF_ASC_NODE = 108.7170
ARG_OF_PERICENTER = 109.5150
MEAN_ANOMALY   = 250.5941

EPHEMERIS_TYPE = 0
CLASSIFICATION_TYPE = U
NORAD_CAT_ID   = 66620
ELEMENT_SET_NO = 999
REV_AT_EPOCH   = 676
BSTAR          = .26839169E-2
MEAN_MOTION_DOT = .10877E-2
MEAN_MOTION_DDOT = 0

CCSDS_OMM_VERS = 2.0
CREATION_DATE  = 
ORIGINATOR     = 

OBJECT_NAME    = STARLINK-35847
OBJECT_ID      = 2025-271E
CENTER_NAME    = EARTH
REF_FRAME      = TEME
TIME_SYSTEM    = UTC
MEAN_ELEMENT_THEORY = SGP/SGP4

EPOCH          = 2025-12-29T08:00:01.999872
MEAN_MOTION    = 15.39555981
ECCENTRICITY   = .00009988
INCLINATION    = 53.1587
RA_OF_ASC_NODE = 108.1691
ARG_OF_PERICENTER = 98.9873
MEAN_ANOMALY   = 291.8712

EPHEMERIS_TYPE = 0
CLASSIFICATION_TYPE = U
NORAD_CAT_ID   = 66621
ELEMENT_SET_NO = 999
REV_AT_EPOCH   = 603
BSTAR          = .15236184E-2
MEAN_MOTION_DOT = .60903E-3
MEAN_MOTION_DDOT = 0

CCSDS_OMM_VERS = 2.0
CREATION_DATE  = 
ORIGINATOR     = 

OBJECT_NAME    = STARLINK-35950
OBJECT_ID      = 2025-271F
CENTER_NAME    = EARTH
REF_FRAME      = TEME
TIME_SYSTEM    = UTC
MEAN_ELEMENT_THEORY = SGP/SGP4

EPOCH          = 2025-12-28T18:58:06.781728
MEAN_MOTION    = 15.39636590
ECCENTRICITY   = .00012225
INCLINATION    = 53.1597
RA_OF_ASC_NODE = 111.2494
ARG_OF_PERICENTER = 79.3215
MEAN_ANOMALY   = 280.7928

EPHEMERIS_TYPE = 0
CLASSIFICATION_TYPE = U
NORAD_CAT_ID   = 66622
ELEMENT_SET_NO = 999
REV_AT_EPOCH   = 668
BSTAR          = .14525856E-2
MEAN_MOTION_DOT = .58179E-3
MEAN_MOTION_DDOT = 0

CCSDS_OMM_VERS = 2.0
CREATION_DATE  = 
ORIGINATOR     = 

OBJECT_NAME    = STARLINK-35920
OBJECT_ID      = 2025-271G
CENTER_NAME    = EARTH
REF_FRAME      = TEME
TIME_SYSTEM    = UTC
MEAN_ELEMENT_THEORY = SGP/SGP4

EPOCH          = 2025-12-28T14:31:03.591552
MEAN_MOTION    = 15.39644459
ECCENTRICITY   = .00010879
INCLINATION    = 53.1597
RA_OF_ASC_NODE = 112.2248
ARG_OF_PERICENTER = 71.1949
MEAN_ANOMALY   = 288.9174

EPHEMERIS_TYPE = 0
CLASSIFICATION_TYPE = U
NORAD_CAT_ID   = 66623
ELEMENT_SET_NO = 999
REV_AT_EPOCH   = 665
BSTAR          = .13586558E-2
MEAN_MOTION_DOT = .54378E-3
MEAN_MOTION_DDOT = 0

CCSDS_OMM_VERS = 2.0
CREATION_DATE  = 
ORIGINATOR     = 

OBJECT_NAME    = STARLINK-35927
OBJECT_ID      = 2025-271H
CENTER_NAME    = EARTH
REF_FRAME      = TEME
TIME_SYSTEM    = UTC
MEAN_ELEMENT_THEORY = SGP/SGP4

EPOCH          = 2025-12-28T15:11:02.412384
MEAN_MOTION    = 15.39627582
ECCENTRICITY   = .0000923
INCLINATION    = 53.1604
RA_OF_ASC_NODE = 111.6854
ARG_OF_PERICENTER = 84.1246
MEAN_ANOMALY   = 275.9864

EPHEMERIS_TYPE = 0
CLASSIFICATION_TYPE = U
NORAD_CAT_ID   = 66624
ELEMENT_SET_NO = 999
REV_AT_EPOCH   = 666
BSTAR          = .15706E-2
MEAN_MOTION_DOT = .6296E-3
MEAN_MOTION_DDOT = 0

CCSDS_OMM_VERS = 2.0
CREATION_DATE  = 
ORIGINATOR     = 

OBJECT_NAME    = STARLINK-35929
OBJECT_ID      = 2025-271J
CENTER_NAME    = EARTH
REF_FRAME      = TEME
TIME_SYSTEM    = UTC
MEAN_ELEMENT_THEORY = SGP/SGP4

EPOCH          = 2025-12-28T12:30:49.850784
MEAN_MOTION    = 15.39620189
ECCENTRICITY   = .0001262
INCLINATION    = 53.1605
RA_OF_ASC_NODE = 112.4126
ARG_OF_PERICENTER = 45.0573
MEAN_ANOMALY   = 315.0534

EPHEMERIS_TYPE = 0
CLASSIFICATION_TYPE = U
NORAD_CAT_ID   = 66625
ELEMENT_SET_NO = 999
REV_AT_EPOCH   = 664
BSTAR          = .14111E-2
MEAN_MOTION_DOT = .56464E-3
MEAN_MOTION_DDOT = 0

